COSMOS 1953             
1 19210U 88050A   16198.95061084  .00000396  00000-0  25947-4 0  9991
2 19210  82.5175 358.3005 0012467 328.8375  31.2111 15.04849337506287
SL-8 R/B                
1 19257U 88053B   16198.94802801  .00000034  00000-0  19960-4 0  9991
2 19257  74.0497 112.8253 0019377  86.8211 346.3104 14.37318169470322
COSMOS 1975             
1 19573U 88093A   16198.88344786  .00000359  00000-0  24034-4 0  9990
2 19573  82.5222 309.7816 0014483   6.8827 353.2595 15.03765132488277
SL-14 R/B               
1 19574U 88093B   16199.32921481  .00000113  00000-0  10862-4 0  9996
2 19574  82.5329  98.1317 0022686 137.4802   1.6408 14.83162759499811
SL-16 R/B               
1 19650U 88102B   16200.51732218 -.00000215  00000-0 -85229-4 0  9998
2 19650  71.0006 356.7010 0015663 323.4931  36.5123 14.15744943428764
INTERCOSMOS 24          
1 20261U 89080A   16200.52883432  .00000330  00000-0  90400-4 0  9993
2 20261  82.5911 226.0664 1205479 146.0825 222.3674 12.55780252224088
SL-14 R/B               
1 20262U 89080C   16199.37994851  .00000060  00000-0  17572-4 0  9991
2 20262  82.5947 270.5111 1236667 299.8996  48.4824 12.48815871219927
DELTA 1 R/B             
1 20323U 89089B   16199.84180591  .00000088  00000-0  31667-4 0  9999
2 20323  97.0656 193.3475 0073255  53.2853 307.5044 14.48132429406332
DELTA 2 R/B(1)          
1 20453U 90008B   16199.48051741  .00001021  00000-0  61178-4 0  9998
2 20453  35.6279  34.9906 0294955 266.9399  89.7530 14.81924552398505
COSMOS 2058             
1 20465U 90010A   16200.09503793  .00000543  00000-0  44563-4 0  9990
2 20465  82.4883 209.0064 0015137 345.8819  14.1978 14.97237444435342
SL-14 R/B               
1 20466U 90010B   16199.85753755  .00000105  00000-0  10499-4 0  9992
2 20466  82.5048 325.4056 0020511   1.0597 359.0656 14.81229055428008
SL-14 R/B               
1 20511U 90018B   16200.16722487  .00000106  00000-0  10957-4 0  9996
2 20511  82.5231 265.1497 0018805 125.6790 291.8191 14.79889441422664
HST                     
1 20580U 90037B   16198.94510245  .00000870  00000-0  43286-4 0  9991
2 20580  28.4705  62.1970 0002841 164.7639 288.4120 15.08424637239525
SL-16 R/B               
1 20625U 90046B   16200.33405848 -.00000312  00000-0 -13724-3 0  9996
2 20625  70.9998 129.8189 0016675 257.0685 245.7562 14.14601384350624
COSMOS 2084             
1 20663U 90055A   16199.72729122  .00000189  00000-0  34535-4 0  9996
2 20663  62.7925 264.1553 0126855  56.8747 304.4445 14.91260740409922
SL-6 R/B(2)             
1 20666U 90055D   16199.13261150  .00000398  00000-0  51175-4 0  9997
2 20666  62.7827 185.8740 0134398  76.2801 285.3212 14.91628846411197
SL-8 R/B                
1 20775U 90078B   16199.84428202  .00001481  00000-0  75078-4 0  9996
2 20775  82.9319 321.8398 0596007 290.7984  63.0351 14.28600745300991
SL-8 R/B                
1 21088U 91006B   16198.74270588  .00000015  00000-0  25186-8 0  9997
2 21088  82.9424 269.5869 0022764 175.8919 299.1335 13.77037043279168
OKEAN-3                 
1 21397U 91039A   16198.81284620  .00000472  00000-0  43710-4 0  9992
2 21397  82.5227  96.9305 0016483 280.1013  79.8347 14.92248802359767
COSMOS 2151             
1 21422U 91042A   16199.55170080  .00000338  00000-0  31078-4 0  9996
2 21422  82.4991 204.8453 0013602 338.2205  21.8435 14.91657445358619
SL-14 R/B               
1 21423U 91042B   16198.71274520  .00000090  00000-0  89326-5 0  9993
2 21423  82.4946 274.8980 0016100 269.1752  90.7616 14.79642276331931
ERS-1                   
1 21574U 91050A   16198.91730456  .00000067  00000-0  36495-4 0  9998
2 21574  98.4159 146.2503 0031895 235.7107 124.1059 14.37503948309434
ARIANE 40 R/B           
1 21610U 91050F   16199.16307861  .00000059  00000-0  32789-4 0  9990
2 21610  98.6537 246.7574 0002592 203.0081 221.9027 14.40745872311872
INTERCOSMOS 25          
1 21819U 91086A   16200.18671966  .00000367  00000-0  63933-4 0  9992
2 21819  82.5563 263.8168 1526127  77.4761 299.2217 12.04284957 72072
SL-14 R/B               
1 21820U 91086B   16199.79902356  .00000144  00000-0  29314-4 0  9996
2 21820  82.5657 315.7050 1576417 253.3986  88.8707 11.93173583 66906
SL-8 R/B                
1 21876U 92008B   16198.95428036  .00000001  00000-0 -14017-4 0  9994
2 21876  82.9258   6.3495 0033562 249.3035 220.7284 13.75585024225062
SL-8 R/B                
1 21938U 92020B   16199.30917131 -.00000009  00000-0 -25102-4 0  9992
2 21938  82.9290 249.0721 0030156  48.5976 358.2726 13.75248685217264
SL-16 R/B               
1 22220U 92076B   16200.00899845 -.00000234  00000-0 -93385-4 0  9997
2 22220  70.9999  42.6678 0010969  56.5825  50.9338 14.16399070223456
SL-16 R/B               
1 22285U 92093B   16199.50698533 -.00000016  00000-0  16117-4 0  9995
2 22285  71.0205 194.3495 0006584 275.8136  84.2236 14.15000712215190
COSMOS 2228             
1 22286U 92094A   16199.87654228  .00000380  00000-0  39079-4 0  9995
2 22286  82.5227 329.2464 0021509 147.7561 212.4977 14.87480590272791
SL-16 R/B               
1 22566U 93016B   16200.09999874 -.00000003  00000-0  22890-4 0  9993
2 22566  71.0080  48.1853 0012577 280.1975  79.7729 14.14932709204010
COSMOS 2242             
1 22626U 93024A   16200.50110109  .00000351  00000-0  35857-4 0  9993
2 22626  82.5221 356.3456 0020031 144.7931 215.4614 14.87486003256543
SL-16 R/B               
1 22803U 93059B   16200.19512883  .00000211  00000-0  12921-3 0  9999
2 22803  70.9887 233.2216 0017170 181.8210 178.2854 14.16747455180976
ARIANE 40 R/B           
1 22830U 93061H   16200.51704779 -.00000009  00000-0  14207-4 0  9991
2 22830  98.8866 202.1814 0010865 176.0816 295.3797 14.31411887190515
COSMOS 2278             
1 23087U 94023A   16199.95222784 -.00000312  00000-0 -14031-3 0  9993
2 23087  71.0541 337.5273 0009128 349.2748  10.8179 14.13719655147254
SL-16 R/B               
1 23088U 94023B   16199.53224642 -.00000279  00000-0 -12025-3 0  9996
2 23088  70.9982 264.4445 0005612 256.9331 103.1165 14.14641544148217
SL-16 R/B               
1 23343U 94074B   16199.68350325  .00000019  00000-0  10341-4 0  9990
2 23343  98.1917 226.6370 0008189  69.7406  41.6044 14.76663502167469
SL-16 R/B               
1 23405U 94077B   16198.46296842  .00000125  00000-0  88922-4 0  9998
2 23405  70.9817 201.2501 0000922 167.8163 192.2982 14.15186940117768
ERS-2                   
1 23560U 95021A   16198.89564112  .00002656  00000-0  13015-3 0  9996
2 23560  98.5144 141.4019 0004244  23.0549 337.0872 15.19221037124420
ARIANE 40+ R/B          
1 23561U 95021B   16199.88314873  .00000063  00000-0  36257-4 0  9998
2 23561  98.7716 187.7304 0007244 158.7856 258.3070 14.37751225113214
SL-16 R/B               
1 23705U 95058B   16198.89565564 -.00000074  00000-0 -13466-4 0  9994
2 23705  71.0215  12.4848 0010440  89.4513 270.7806 14.15083391 69450
SL-16 R/B               
1 24298U 96051B   16199.03625834  .00000113  00000-0  87663-4 0  9992
2 24298  70.8373  48.5015 0017049 310.2784  49.6845 14.12413322 24492
ORBVIEW 2 (SEASTAR)     
1 24883U 97037A   16198.83893112  .00000033  00000-0  27682-4 0  9996
2 24883  98.5241 306.3207 0002900  43.9174 316.2240 14.33327149  3868
SL-16 R/B               
1 25400U 98043G   16199.87180843 -.00000004  00000-0  15947-4 0  9995
2 25400  98.4403 153.6572 0009575 187.4784 172.6255 14.25385722937449
SL-16 R/B               
1 25407U 98045B   16199.10613907 -.00000121  00000-0 -37369-4 0  9995
2 25407  71.0118  25.5848 0008311 341.8617  18.2208 14.15750327928750
ISS (ZARYA)             
1 25544U 98067A   16198.73388417  .00004374  00000-0  71445-4 0  9999
2 25544  51.6452 270.6164 0001656  65.9915  79.2335 15.54842121  9588
SL-8 R/B                
1 25723U 99022C   16199.34580502  .00008001  00000-0  15231-3 0  9998
2 25723  48.4172 146.1111 0011567 225.6415 270.7780 15.48989047954506
CZ-4B R/B               
1 25732U 99025C   16199.91205164 -.00000017  00000-0  14256-4 0  9999
2 25732  98.9738 191.8929 0036789 324.2822  90.7041 14.17612401889272
OKEAN-O                 
1 25860U 99039A   16199.95989669  .00000155  00000-0  29954-4 0  9992
2 25860  98.1460 175.0750 0001818  99.7768 260.3647 14.76375518914515
SL-16 R/B               
1 25861U 99039B   16199.00260310  .00000095  00000-0  20398-4 0  9990
2 25861  98.0559 163.0722 0017129  81.9869 319.9756 14.78332277916259
TERRA                   
1 25994U 99068A   16200.19686369  .00000012  00000-0  12648-4 0  9996
2 25994  98.2079 274.0587 0001400  72.1384 287.9980 14.57116275882032
SL-14 R/B               
1 26874U 01032B   16199.86943582  .00023866  00000-0  11432-3 0  9993
2 26874  82.4587 248.2268 0008206  91.5046 268.7163 15.82519838840494
ENVISAT                 
1 27386U 02009A   16200.15998729  .00000002  00000-0  14513-4 0  9996
2 27386  98.2815 252.4676 0001240  90.7251 269.4100 14.37870983753078
IDEFIX & ARIANE 42P R/B 
1 27422U 02021B   16198.89584220  .00000006  00000-0  18156-4 0  9996
2 27422  98.2295 211.7776 0013053 145.5976 214.6055 14.29246873738786
AQUA                    
1 27424U 02022A   16198.92461131  .00000157  00000-0  44827-4 0  9999
2 27424  98.2003 139.0068 0002423  79.1924 353.6881 14.57121776755409
CZ-4B R/B               
1 27432U 02024C   16199.90402086 -.00000015  00000-0  15537-4 0  9993
2 27432  98.9388 166.4523 0049410 258.6342 158.4906 14.14019836731551
MIDORI II (ADEOS-II)    
1 27597U 02056A   16200.42391405  .00000047  00000-0  35916-4 0  9999
2 27597  98.3238 179.0403 0000743 133.2684 226.8560 14.27222366707817
H-2A R/B                
1 27601U 02056E   16200.21483425  .00000059  00000-0  37090-4 0  9994
2 27601  98.4171 272.8032 0071800 204.2646 215.5233 14.31723746710021
CZ-4B R/B               
1 28059U 03049C   16199.57810161  .00000013  00000-0  15235-4 0  9999
2 28059  98.6077  71.9383 0049996 186.0028 230.3195 14.52448901675106
